STARLINK-2101           
1 47381U 21005AJ  23303.70180487  .00000100  00000+0  25601-4 0  9995
2 47381  53.0548 301.8323 0001717  94.4452 265.6733 15.06389987153629
STARLINK-2102           
1 47382U 21005AK  23303.67830728  .00024813  00000+0  16792-2 0  9998
2 47382  53.0542 296.8494 0001603  93.9068 266.2104 15.06392068153686
STARLINK-2103           
1 47383U 21005AL  23303.32540919  .00027617  00000+0  18667-2 0  9999
2 47383  53.0541 288.7150 0001706  94.0971 266.0213 15.06379958153776
STARLINK-2104           
1 47384U 21005AM  23303.26550730  .00019383  00000+0  13173-2 0  9993
2 47384  53.0536 298.9451 0001500  96.6935 263.4225 15.06379792153622
STARLINK-2105           
1 47385U 21005AN  23303.72622427  .00027582  00000+0  18635-2 0  9996
2 47385  53.0546 296.6327 0001513  93.1606 266.9556 15.06396905153699
STARLINK-2106           
1 47386U 21005AP  23303.68936467  .00023872  00000+0  16165-2 0  9998
2 47386  53.0540 296.8008 0001570 102.7580 257.3584 15.06390647153695
STARLINK-2108           
1 47387U 21005AQ  23303.80822605  .00003248  00000+0  23683-3 0  9990
2 47387  53.0545 326.2672 0001498  98.6750 261.4409 15.06397499153286
STARLINK-2109           
1 47388U 21005AR  23303.49123754  .00001168  00000+0  97339-4 0  9994
2 47388  53.0531 327.6906 0001529  86.1134 274.0030 15.06394147154198
STARLINK-2110           
1 47389U 21005AS  23303.73540353  .00000013  00000+0  19749-4 0  9997
2 47389  53.0548 306.5851 0001644  83.8085 276.3091 15.06398608153556
STARLINK-2111           
1 47390U 21005AT  23303.79716892  .00005309  00000+0  37511-3 0  9997
2 47390  53.0537 326.3197 0001597  83.9071 276.2100 15.06395716153289
STARLINK-2112           
1 47391U 21005AU  23303.27559891  .00007455  00000+0  51881-3 0  9995
2 47391  53.0552 298.6534 0001557 106.4467 253.6693 15.06404051153626
STARLINK-2113           
1 47392U 21005AV  23303.27653078 -.00000366  00000+0 -56901-5 0  9994
2 47392  53.0537 298.6520 0001695  85.0693 275.0489 15.06393749153623
STARLINK-2114           
1 47393U 21005AW  23303.63458056  .00027802  00000+0  18790-2 0  9997
2 47393  53.0550 272.4007 0001648  99.1713 260.9462 15.06380267154026
STARLINK-2115           
1 47394U 21005AX  23303.30096926  .00000103  00000+0  25848-4 0  9995
2 47394  53.0538 293.7056 0001483  80.8434 279.2723 15.06384749153703
STARLINK-2117           
1 47395U 21005AY  23303.65341504  .00001971  00000+0  15117-3 0  9990
2 47395  53.0538 286.9617 0001599  86.2117 273.9055 15.06399583153821
STARLINK-2118           
1 47396U 21005AZ  23303.69673998  .00024277  00000+0  16435-2 0  9997
2 47396  53.0538 296.7677 0001801  99.3232 260.7961 15.06390983153696
STARLINK-2119           
1 47397U 21005BA  23303.76031725  .00024394  00000+0  16511-2 0  9997
2 47397  53.0542 326.4826 0001721  86.8750 273.2436 15.06394680153285
STARLINK-2120           
1 47398U 21005BB  23303.26916314  .00006170  00000+0  43274-3 0  9998
2 47398  53.0538 298.6877 0001719  77.2994 282.8187 15.06401306153629
STARLINK-2121           
1 47399U 21005BC  23303.30513210  .00024010  00000+0  16259-2 0  9997
2 47399  53.0546 308.7674 0001992  95.1888 264.9328 15.06385016153482
STARLINK-2122           
1 47400U 21005BD  23303.33274843  .00025809  00000+0  17461-2 0  9992
2 47400  53.0542 288.4113 0001609  97.8659 262.2513 15.06381251153779
STARLINK-2123           
1 47401U 21005BE  23303.68199109  .00019365  00000+0  13156-2 0  9999
2 47401  53.0543 296.8334 0001577  89.2906 270.8264 15.06393438153692
STARLINK-2124           
1 47402U 21005BF  23303.70041361  .00002018  00000+0  15432-3 0  9996
2 47402  53.0533 296.7503 0001486  89.3325 270.7834 15.06396283153697
STARLINK-2127           
1 47403U 21005BG  23303.70779344  .00024016  00000+0  16263-2 0  9990
2 47403  53.0533 296.7181 0001660  97.2665 262.8513 15.06386302153696
STARLINK-2128           
1 47404U 21005BH  23303.70410939  .00022680  00000+0  15373-2 0  9999
2 47404  53.0534 296.7344 0001834  90.3397 269.7802 15.06383315153696
STARLINK-2130           
1 47405U 21005BJ  23303.48755690  .00019158  00000+0  13021-2 0  9995
2 47405  53.0540 327.7085 0001784  94.0264 266.0929 15.06383537153235
STARLINK-2133           
1 47406U 21005BK  23303.71517658  .00022710  00000+0  15395-2 0  9996
2 47406  53.0542 296.6851 0001634 100.3488 259.7685 15.06378135153692
STARLINK-2134           
1 47407U 21005BL  23303.72253422  .00010885  00000+0  74823-3 0  9996
2 47407  53.0538 296.6505 0001668  76.5037 283.6138 15.06414565153692
STARLINK-2135           
1 47408U 21005BM  23303.69305160  .00024263  00000+0  16425-2 0  9998
2 47408  53.0535 296.7843 0001491  99.0370 261.0788 15.06391532153699
STARLINK-1782           
1 47548U 21009A   23303.63222780  .00026870  00000+0  18171-2 0  9993
2 47548  53.0542 277.0562 0001366  96.2495 263.8650 15.06375439151155
STARLINK-1806           
1 47549U 21009B   23303.29680892  .00024427  00000+0  16540-2 0  9992
2 47549  53.0538 278.5619 0001430 103.5880 256.5268 15.06380081151100
STARLINK-1909           
1 47550U 21009C   23303.64052677  .00029942  00000+0  20202-2 0  9994
2 47550  53.0540 267.0187 0001686 105.8674 254.2501 15.06404633151292
STARLINK-1938           
1 47551U 21009D   23303.36959966  .00002186  00000+0  16563-3 0  9998
2 47551  53.0539 288.2342 0001737  99.9107 260.2078 15.06390640150972
STARLINK-1940           
1 47552U 21009E   23303.63960762  .00026428  00000+0  17871-2 0  9992
2 47552  53.0536 277.0237 0001503  95.3499 264.7661 15.06387100151159
STARLINK-1953           
1 47554U 21009G   23303.71147047  .00005581  00000+0  39324-3 0  9991
2 47554  53.0528 296.7022 0001629  82.7899 277.3276 15.06403056150885
STARLINK-1954           
1 47555U 21009H   23303.68659658  .00003151  00000+0  23035-3 0  9997
2 47555  53.0539 286.8139 0001508 108.7966 251.3187 15.06397097151024
STARLINK-1955           
1 47556U 21009J   23303.72161584  .00023567  00000+0  15961-2 0  9990
2 47556  53.0540 306.6564 0001684  97.9838 262.1342 15.06392375150747
STARLINK-1956           
1 47557U 21009K   23303.28667394  .00027336  00000+0  18476-2 0  9994
2 47557  53.0546 308.6080 0001815  83.7678 276.3518 15.06387317150685
STARLINK-1957           
1 47558U 21009L   23303.66540560  .00028354  00000+0  19145-2 0  9997
2 47558  53.0544 276.9073 0001709  99.6955 260.4227 15.06404322151159
STARLINK-1958           
1 47559U 21009M   23303.62947050  .00028791  00000+0  19437-2 0  9998
2 47559  53.0543 267.0685 0001579 110.2594 249.8565 15.06403573151291
STARLINK-1959           
1 47560U 21009N   23303.35577098  .00010897  00000+0  74914-3 0  9991
2 47560  53.0550 268.2849 0001604 113.0870 247.0288 15.06409170151250
STARLINK-1960           
1 47561U 21009P   23303.67554067  .00026421  00000+0  17867-2 0  9991
2 47561  53.0530 286.8631 0001546  97.1329 262.9835 15.06385703151024
STARLINK-1961           
1 47562U 21009Q   23303.69027499  .00003718  00000+0  26833-3 0  9996
2 47562  53.0536 286.7938 0001490  90.8369 269.2790 15.06403587151023
STARLINK-1962           
1 47563U 21009R   23303.38066755  .00009819  00000+0  67699-3 0  9994
2 47563  53.0544 288.1837 0001728  76.6698 283.4483 15.06409287150971
STARLINK-1963           
1 47564U 21009S   23303.64697686  .00027607  00000+0  18648-2 0  9991
2 47564  53.0535 276.9908 0001512 108.4946 251.6208 15.06403781151153
STARLINK-1964           
1 47565U 21009T   23303.64328988  .00021300  00000+0  14443-2 0  9991
2 47565  53.0535 277.0066 0001768 106.3296 253.7888 15.06404667151150
STARLINK-1965           
1 47566U 21009U   23303.63684228  .00030285  00000+0  20429-2 0  9996
2 47566  53.0539 267.0353 0001667 104.7181 255.3993 15.06406955151298
STARLINK-1966           
1 47567U 21009V   23303.74004464  .00025710  00000+0  17389-2 0  9995
2 47567  53.0535 306.5727 0001506  99.2081 260.9079 15.06393966150741
STARLINK-1967           
1 47568U 21009W   23303.30142068  .00006194  00000+0  43431-3 0  9994
2 47568  53.0550 308.5413 0001856  85.4767 274.6434 15.06401699150682
STARLINK-1969           
1 47570U 21009Y   23303.62576488  .00000777  00000+0  71089-4 0  9991
2 47570  53.0533 267.0862 0001556  92.0406 268.0762 15.06395854151298
STARLINK-1970           
1 47571U 21009Z   23303.90131206  .00022815  00000+0  15463-2 0  9997
2 47571  53.0537 275.8490 0001518  94.8213 265.2949 15.06382198151193
STARLINK-1971           
1 47572U 21009AA  23303.35210734  .00005224  00000+0  36934-3 0  9993
2 47572  53.0536 278.3126 0001715  81.9611 278.1573 15.06400420151112
STARLINK-1975           
1 47573U 21009AB  23303.66172085  .00028054  00000+0  18945-2 0  9991
2 47573  53.0540 276.9252 0001617 102.1589 257.9581 15.06404994151151
STARLINK-1976           
1 47574U 21009AC  23303.74373154  .00026650  00000+0  18013-2 0  9997
2 47574  53.0525 306.5579 0001680  99.5626 260.5553 15.06399012150745
STARLINK-1977           
1 47575U 21009AD  23303.73267060  .00024333  00000+0  16471-2 0  9997
2 47575  53.0524 306.6067 0001671  97.6184 262.4994 15.06394093150740
STARLINK-1978           
1 47576U 21009AE  23303.63314838  .00009025  00000+0  62381-3 0  9996
2 47576  53.0540 267.0531 0001624  85.3751 274.7424 15.06410117151298
STARLINK-1979           
1 47577U 21009AF  23303.93953741  .00002556  00000+0  19038-3 0  9995
2 47577  53.0543 280.6783 0001488 104.4695 255.6459 15.06410139151133
STARLINK-1980           
1 47578U 21009AG  23303.66817183  .00024194  00000+0  16378-2 0  9990
2 47578  53.0541 286.8956 0001685  92.5294 267.5888 15.06393723151017
STARLINK-1981           
1 47579U 21009AH  23303.65065625  .00000751  00000+0  69304-4 0  9998
2 47579  53.0537 276.9744 0001495 105.4064 254.7090 15.06388892151155
STARLINK-1982           
1 47580U 21009AJ  23303.67184995  .00026324  00000+0  17805-2 0  9995
2 47580  53.0547 286.8768 0001614  82.6869 277.4304 15.06379642151014
